GLOBALSTAR M067         
1 32263U 07048A   25212.49222426 -.00000094  00000+0  28220-4 0  9999
2 32263  51.9722 266.2942 0001211  94.0497  14.6718 12.40674616814987
GLOBALSTAR M070         
1 32264U 07048B   25212.55923720 -.00000099  00000+0  28239-4 0  9997
2 32264  51.9775 353.3280 0000727 112.8097 325.3596 12.62320475819273
GLOBALSTAR M066         
1 32265U 07048C   25212.35370485 -.00000071  00000+0  20097-3 0  9993
2 32265  51.9572 258.9124 0004977  69.4993  10.9687 12.30162185820737
GLOBALSTAR M068         
1 32266U 07048D   25212.25659050 -.00000097  00000+0  36806-4 0  9995
2 32266  51.9869 167.9175 0000675 241.8315 268.7739 12.62826329823126
GLOBALSTAR M079         
1 37188U 10054A   25212.60298325 -.00000099  00000+0  28016-4 0  9993
2 37188  52.0060   4.5771 0000970  79.7415 359.1595 12.62265571682061
GLOBALSTAR M074         
1 37189U 10054B   25212.53948377 -.00000105  00000+0 -69626-5 0  9997
2 37189  52.0038   4.0881 0000950 100.6669 287.9461 12.62266758682739
GLOBALSTAR M076         
1 37190U 10054C   25212.57615206 -.00000093  00000+0  58168-4 0  9998
2 37190  52.0050   4.1502 0001081  90.0169 346.0443 12.62264172682385
GLOBALSTAR M077         
1 37191U 10054D   25212.54864421 -.00000082  00000+0  12248-3 0  9997
2 37191  52.0093 321.1033 0000732 111.9060 260.3824 12.62322490682759
